ONEWEB-0379             
1 49305U 21090AC  24202.86459256  .00000134  00000+0  32748-3 0  9992
2 49305  87.8938  68.2271 0001863  78.2718 281.8621 13.14502328136088
ONEWEB-0380             
1 49306U 21090AD  24202.73205997  .00000093  00000+0  20083-3 0  9993
2 49306  87.9133  83.5548 0001796  78.7411 281.3923 13.19723805134565
ONEWEB-0381             
1 49307U 21090AE  24202.87765562 -.00000010  00000+0 -55355-4 0  9990
2 49307  87.9186  52.9649 0001815  88.9579 271.1762 13.20772941137913
ONEWEB-0382             
1 49308U 21090AF  24202.86503103  .00000008  00000+0 -12714-4 0  9999
2 49308  87.9184  52.9641 0002247  88.2912 271.8479 13.20770460137903
ONEWEB-0383             
1 49309U 21090AG  24202.85824320  .00000215  00000+0  54501-3 0  9994
2 49309  87.8936  68.2160 0002008  78.9105 281.2250 13.14504322136118
ONEWEB-0384             
1 49310U 21090AH  24202.86187411  .00000074  00000+0  15120-3 0  9997
2 49310  87.9187  52.9767 0002339  87.9745 272.1656 13.20770984137913
ONEWEB-0385             
1 49311U 21090AJ  24202.85714090  .00000058  00000+0  11159-3 0  9996
2 49311  87.9186  52.9788 0002113  91.2440 268.8936 13.20771453137887
ONEWEB-0386             
1 49312U 21090AK  24202.87449655  .00000049  00000+0  88115-4 0  9998
2 49312  87.9179  52.9679 0002086  86.2752 273.8620 13.20771055137905
